INMARSAT 4-F2 (SOUTHPA*)
1 28899U 05044A   26065.32477566 -.00000264  00000+0  00000+0 0  9999
2 28899   4.9598  43.8038 0002699 323.6854  56.9722  1.00271905 74496
GSAT-8 (GAGAN/PRN 127)  
1 37605U 11022A   26065.80646343  .00000082  00000+0  00000+0 0  9998
2 37605   1.8663  83.1264 0007140 216.5939 210.1807  1.00273406 52197
LUCH 5A (SDCM/PRN 140)  
1 37951U 11074B   26065.82856353 -.00000049  00000+0  00000+0 0  9999
2 37951   8.4932  75.3103 0003865 248.4746 306.1672  1.00276045 52028
SES-5 (EGNOS/PRN 136)   
1 38652U 12036A   26065.22597522  .00000028  00000+0  00000+0 0  9997
2 38652   0.0597 310.4117 0001901  31.4449 268.4077  1.00271218 43429
GSAT-10 (GAGAN/PRN 128) 
1 38779U 12051B   26065.81201012 -.00000168  00000+0  00000+0 0  9991
2 38779   0.0676 261.9938 0004551 177.4731 100.3598  1.00273399 49078
LUCH 5B (SDCM/PRN 125)  
1 38977U 12061A   26065.76608216 -.00000139  00000+0  00000+0 0  9991
2 38977  10.2623  50.8817 0003692 226.3927 146.6875  1.00272261 48583
ASTRA 5B (EGNOS/PRN 123)
1 39617U 14011B   26065.80022338  .00000134  00000+0  00000+0 0  9994
2 39617   0.0860 301.0296 0004015  28.7722 146.2633  1.00272325 43645
LUCH 5V (SDCM/PRN 141)  
1 39727U 14023A   26065.60036917 -.00000271  00000+0  00000+0 0  9998
2 39727   4.8804  70.7549 0003084 285.1366 119.2902  1.00271330 43336
GSAT-15 (GAGAN/PRN 139) 
1 41028U 15065A   26065.10082801 -.00000263  00000+0  00000+0 0  9991
2 41028   0.0855 269.7149 0001104 106.5589 277.3204  1.00271608 37766
EUTELSAT 117 WEST B (W*)
1 41589U 16038B   26064.98792982 -.00000018  00000+0  00000+0 0  9995
2 41589   0.0104 328.8615 0000350 267.7539 165.7653  1.00273781 35622
SES-15 (WAAS/PRN 133)   
1 42709U 17026A   26064.01780892  .00000050  00000+0  00000+0 0  9994
2 42709   0.0426 307.9199 0000713  39.5952  52.4724  1.00271060  6386
QZS-2 (QZSS/PRN 194)    
1 42738U 17028A   26064.73548161 -.00000170  00000+0  00000+0 0  9992
2 42738  39.5883 244.6601 0745486 270.3415  54.7958  1.00261653  6582
QZS-3 (QZSS/PRN 199)    
1 42917U 17048A   26065.78864368 -.00000351  00000+0  00000+0 0  9990
2 42917   0.0678 212.5623 0002297 148.1009 214.7581  1.00275228 31234
QZS-4 (QZSS/PRN 195)    
1 42965U 17062A   26064.74126170 -.00000341  00000+0  00000+0 0  9995
2 42965  40.1722 344.8064 0748494 269.9150 316.0784  1.00280691 30763
BEIDOU-3 G1 (PRN 130)   
1 43683U 18085A   26065.82327684 -.00000281  00000+0  00000+0 0  9995
2 43683   2.8167 100.3177 0001536  15.9186 124.6875  1.00267936 27033
EUTELSAT 5 WEST B (EGN*)
1 44624U 19067A   26065.79450338 -.00000046  00000+0  00000+0 0  9990
2 44624   0.0906 313.0550 0003219  44.2294  88.2197  1.00273147 23414
BEIDOU-3 G2 (PRN 144)   
1 45344U 20017A   26065.81140345 -.00000143  00000+0  00000+0 0  9992
2 45344   2.6592  45.6301 0002728 310.2866 180.7453  1.00272736 22235
